[{"OBJECT_NAME":"STARLINK-31141","OBJECT_ID":"2024-012S","EPOCH":"2026-03-09T07:07:15.530592","MEAN_MOTION":15.27549168,"ECCENTRICITY":7.138e-5,"INCLINATION":42.9989,"RA_OF_ASC_NODE":167.6553,"ARG_OF_PERICENTER":245.7491,"MEAN_ANOMALY":114.3286,"EPHEMERIS_TYPE":0,"CLASSIFICATION_TYPE":"U","NORAD_CAT_ID":58803,"ELEMENT_SET_NO":999,"REV_AT_EPOCH":12117,"BSTAR":-0.00082860928,"MEAN_MOTION_DOT":-0.00022971,"MEAN_MOTION_DDOT":0},{"OBJECT_NAME":"DMSP 5D-2 F14 DEB","OBJECT_ID":"1997-012G","EPOCH":"2026-03-09T18:05:19.087296","MEAN_MOTION":15.2878374,"ECCENTRICITY":0.00491251,"INCLINATION":99.2047,"RA_OF_ASC_NODE":151.8456,"ARG_OF_PERICENTER":247.1908,"MEAN_ANOMALY":112.4133,"EPHEMERIS_TYPE":0,"CLASSIFICATION_TYPE":"U","NORAD_CAT_ID":62936,"ELEMENT_SET_NO":999,"REV_AT_EPOCH":6425,"BSTAR":0.05046686,"MEAN_MOTION_DOT":0.01624988,"MEAN_MOTION_DDOT":0}]
